{
  "norad_id": 62064,
  "name": "STARLINK-11456 [DTC]",
  "history": [
    {
      "epoch": "2026-04-12T17:46:16.078368Z",
      "apogee_km": 360.27109141049823,
      "perigee_km": 359.10652559775735,
      "latitude_deg": 5.266535521160398e-05,
      "longitude_deg": 155.73708738368563,
      "height_km": 360.24097221874877,
      "semi_major_axis_km": 6737.825808504128,
      "eccentricity": 8.642e-05,
      "inclination_deg": 53.1565,
      "raan_deg": 263.2453,
      "arg_perigee_deg": 51.6013,
      "mean_anomaly_deg": 308.5083,
      "mean_motion_rev_day": 15.69723259
    },
    {
      "epoch": "2026-04-14T18:40:08.762880Z",
      "apogee_km": 360.37484769937873,
      "perigee_km": 358.9599087799488,
      "latitude_deg": 8.407873633194788e-07,
      "longitude_deg": 130.2147634156578,
      "height_km": 360.4204363485307,
      "semi_major_axis_km": 6737.8043782396635,
      "eccentricity": 0.000105,
      "inclination_deg": 53.1574,
      "raan_deg": 253.2007,
      "arg_perigee_deg": 76.8932,
      "mean_anomaly_deg": 283.2203,
      "mean_motion_rev_day": 15.69730748
    },
    {
      "epoch": "2026-04-15T19:07:05.312064Z",
      "apogee_km": 360.23675895113865,
      "perigee_km": 359.157357934977,
      "latitude_deg": -2.5079232660184506e-05,
      "longitude_deg": 117.45443798081497,
      "height_km": 360.5204475985759,
      "semi_major_axis_km": 6737.834058443058,
      "eccentricity": 8.01e-05,
      "inclination_deg": 53.1577,
      "raan_deg": 248.1801,
      "arg_perigee_deg": 80.3534,
      "mean_anomaly_deg": 279.7574,
      "mean_motion_rev_day": 15.69720376
    },
    {
      "epoch": "2026-04-16T18:02:20.660064Z",
      "apogee_km": 360.21564561632385,
      "perigee_km": 359.11064639237884,
      "latitude_deg": -1.0479468044904227e-06,
      "longitude_deg": 127.98997856703642,
      "height_km": 360.44388580147273,
      "semi_major_axis_km": 6737.8001460043515,
      "eccentricity": 8.2e-05,
      "inclination_deg": 53.1576,
      "raan_deg": 243.4709,
      "arg_perigee_deg": 76.0632,
      "mean_anomaly_deg": 284.0477,
      "mean_motion_rev_day": 15.69732227
    },
    {
      "epoch": "2026-04-17T15:25:55.054848Z",
      "apogee_km": 360.1783640185986,
      "perigee_km": 359.05962701310364,
      "latitude_deg": 1.9925549923154333e-05,
      "longitude_deg": 161.82410913858098,
      "height_km": 360.49403443903964,
      "semi_major_axis_km": 6737.755995515851,
      "eccentricity": 8.302e-05,
      "inclination_deg": 53.1577,
      "raan_deg": 239.0769,
      "arg_perigee_deg": 86.0286,
      "mean_anomaly_deg": 274.0827,
      "mean_motion_rev_day": 15.69747656
    },
    {
      "epoch": "2026-04-18T14:21:10.071936Z",
      "apogee_km": 360.2163074604405,
      "perigee_km": 358.9455738568331,
      "latitude_deg": -6.788695689932442e-05,
      "longitude_deg": 172.36204755248448,
      "height_km": 360.40571306632853,
      "semi_major_axis_km": 6737.7179406586365,
      "eccentricity": 9.43e-05,
      "inclination_deg": 53.1583,
      "raan_deg": 234.3688,
      "arg_perigee_deg": 81.952,
      "mean_anomaly_deg": 278.1604,
      "mean_motion_rev_day": 15.69760955
    },
    {
      "epoch": "2026-04-19T14:48:06.763680Z",
      "apogee_km": 360.9259802998886,
      "perigee_km": 358.7859937272133,
      "latitude_deg": 5.836734036982641e-06,
      "longitude_deg": 159.60039802005673,
      "height_km": 359.88494330669545,
      "semi_major_axis_km": 6737.992987013551,
      "eccentricity": 0.0001588,
      "inclination_deg": 53.1579,
      "raan_deg": 229.3474,
      "arg_perigee_deg": 34.2213,
      "mean_anomaly_deg": 325.8907,
      "mean_motion_rev_day": 15.69664839
    },
    {
      "epoch": "2026-04-20T13:43:22.690560Z",
      "apogee_km": 360.4767235209938,
      "perigee_km": 358.862479815366,
      "latitude_deg": 1.7292514197939695e-06,
      "longitude_deg": 170.13449546315647,
      "height_km": 360.03847394765455,
      "semi_major_axis_km": 6737.80660166818,
      "eccentricity": 0.00011979,
      "inclination_deg": 53.1578,
      "raan_deg": 224.6392,
      "arg_perigee_deg": 47.5416,
      "mean_anomaly_deg": 312.5703,
      "mean_motion_rev_day": 15.69729971
    },
    {
      "epoch": "2026-04-21T14:10:18.513984Z",
      "apogee_km": 359.8884425317983,
      "perigee_km": 359.02333560484203,
      "latitude_deg": -4.203441831397464e-06,
      "longitude_deg": 157.37501277617812,
      "height_km": 360.0162468238257,
      "semi_major_axis_km": 6737.59288906832,
      "eccentricity": 6.42e-05,
      "inclination_deg": 53.158,
      "raan_deg": 219.6164,
      "arg_perigee_deg": 35.0585,
      "mean_anomaly_deg": 325.0475,
      "mean_motion_rev_day": 15.69804658
    },
    {
      "epoch": "2026-04-22T13:05:34.617120Z",
      "apogee_km": 360.575424952448,
      "perigee_km": 358.86495252651457,
      "latitude_deg": -1.168114661972389e-05,
      "longitude_deg": 167.9111706461185,
      "height_km": 360.59614807699353,
      "semi_major_axis_km": 6737.857188739481,
      "eccentricity": 0.00012693,
      "inclination_deg": 53.1577,
      "raan_deg": 214.911,
      "arg_perigee_deg": 87.5055,
      "mean_anomaly_deg": 272.6108,
      "mean_motion_rev_day": 15.69712293
    },
    {
      "epoch": "2026-04-23T13:32:30.516576Z",
      "apogee_km": 360.33763398881547,
      "perigee_km": 358.94412676759566,
      "latitude_deg": 5.22947764480365e-05,
      "longitude_deg": 155.15152276394983,
      "height_km": 360.2058720074324,
      "semi_major_axis_km": 6737.777880378206,
      "eccentricity": 0.00010341,
      "inclination_deg": 53.157,
      "raan_deg": 209.8883,
      "arg_perigee_deg": 59.9767,
      "mean_anomaly_deg": 300.1354,
      "mean_motion_rev_day": 15.69740008
    },
    {
      "epoch": "2026-04-24T15:31:08.448384Z",
      "apogee_km": 360.29016044827495,
      "perigee_km": 359.05714109918335,
      "latitude_deg": -5.4883843821582605e-05,
      "longitude_deg": 119.09144652317904,
      "height_km": 360.57620732035866,
      "semi_major_axis_km": 6737.810650773729,
      "eccentricity": 9.15e-05,
      "inclination_deg": 53.1578,
      "raan_deg": 204.5532,
      "arg_perigee_deg": 88.9662,
      "mean_anomaly_deg": 271.146,
      "mean_motion_rev_day": 15.69728556
    },
    {
      "epoch": "2026-04-25T15:58:04.363392Z",
      "apogee_km": 360.40438060534325,
      "perigee_km": 358.8762527099243,
      "latitude_deg": 3.9013825553040765e-05,
      "longitude_deg": 106.33245770556746,
      "height_km": 360.7894803762499,
      "semi_major_axis_km": 6737.7773166576335,
      "eccentricity": 0.0001134,
      "inclination_deg": 53.1572,
      "raan_deg": 199.5312,
      "arg_perigee_deg": 107.9742,
      "mean_anomaly_deg": 252.14,
      "mean_motion_rev_day": 15.69740205
    },
    {
      "epoch": "2026-04-26T14:53:20.361120Z",
      "apogee_km": 360.34415560705384,
      "perigee_km": 358.7016488760855,
      "latitude_deg": 1.276141633520372e-05,
      "longitude_deg": 116.86544471267061,
      "height_km": 360.35507381499497,
      "semi_major_axis_km": 6737.659902241569,
      "eccentricity": 0.00012189,
      "inclination_deg": 53.1576,
      "raan_deg": 194.8222,
      "arg_perigee_deg": 84.3328,
      "mean_anomaly_deg": 275.7829,
      "mean_motion_rev_day": 15.69781238
    },
    {
      "epoch": "2026-04-27T10:45:14.061888Z",
      "apogee_km": 361.052674609693,
      "perigee_km": 358.5933192108205,
      "latitude_deg": -1.6341065378723172e-05,
      "longitude_deg": 173.9958472618515,
      "height_km": 359.79532809395084,
      "semi_major_axis_km": 6737.959996910256,
      "eccentricity": 0.0001825,
      "inclination_deg": 53.1576,
      "raan_deg": 190.7422,
      "arg_perigee_deg": 40.0736,
      "mean_anomaly_deg": 320.0416,
      "mean_motion_rev_day": 15.69676367
    },
    {
      "epoch": "2026-04-28T14:15:32.565024Z",
      "apogee_km": 360.4541518631486,
      "perigee_km": 358.7791463059875,
      "latitude_deg": 3.6274516020476124e-05,
      "longitude_deg": 114.63999498621827,
      "height_km": 360.1058349036698,
      "semi_major_axis_km": 6737.753649084568,
      "eccentricity": 0.0001243,
      "inclination_deg": 53.1573,
      "raan_deg": 185.093,
      "arg_perigee_deg": 59.566,
      "mean_anomaly_deg": 300.5481,
      "mean_motion_rev_day": 15.69748476
    },
    {
      "epoch": "2026-04-29T14:42:29.034720Z",
      "apogee_km": 360.52277977628546,
      "perigee_km": 358.6820293709552,
      "latitude_deg": -1.9771931187330024e-05,
      "longitude_deg": 101.87927772562648,
      "height_km": 360.4790659217358,
      "semi_major_axis_km": 6737.73940457362,
      "eccentricity": 0.0001366,
      "inclination_deg": 53.1566,
      "raan_deg": 180.0717,
      "arg_perigee_deg": 87.7406,
      "mean_anomaly_deg": 272.3768,
      "mean_motion_rev_day": 15.69753454
    },
    {
      "epoch": "2026-04-30T09:02:41.256096Z",
      "apogee_km": 360.5540682074752,
      "perigee_km": 358.6622441225272,
      "latitude_deg": -6.754221740521986e-06,
      "longitude_deg": -177.69099771956405,
      "height_km": 360.7482562698634,
      "semi_major_axis_km": 6737.7451561650005,
      "eccentricity": 0.00014039,
      "inclination_deg": 53.1572,
      "raan_deg": 176.3054,
      "arg_perigee_deg": 103.8912,
      "mean_anomaly_deg": 256.2262,
      "mean_motion_rev_day": 15.69751444
    },
    {
      "epoch": "2026-05-02T09:56:34.535904Z",
      "apogee_km": 360.40195797722845,
      "perigee_km": 359.0961556594175,
      "latitude_deg": 2.600926843304361e-06,
      "longitude_deg": 156.78423251436064,
      "height_km": 360.31738039497236,
      "semi_major_axis_km": 6737.886056818323,
      "eccentricity": 9.69e-05,
      "inclination_deg": 53.1571,
      "raan_deg": 166.2608,
      "arg_perigee_deg": 58.0616,
      "mean_anomaly_deg": 302.0496,
      "mean_motion_rev_day": 15.69702205
    }
  ]
}